OBJECT_NAME,OBJECT_ID,EPOCH,MEAN_MOTION,ECCENTRICITY,INCLINATION,RA_OF_ASC_NODE,ARG_OF_PERICENTER,MEAN_ANOMALY,EPHEMERIS_TYPE,CLASSIFICATION_TYPE,NORAD_CAT_ID,ELEMENT_SET_NO,REV_AT_EPOCH,BSTAR,MEAN_MOTION_DOT,MEAN_MOTION_DDOT
CUTE-1 (CO-55),2003-031E,2026-07-15T23:30:01.451808,14.24351837,.00108408,98.6744,205.1765,100.6537,259.5863,0,U,27844,999,19577,.75468608E-4,.131E-5,0
CUBESAT XI-IV (CO-57),2003-031J,2026-07-15T23:34:14.618496,14.23634777,.00105663,98.6774,204.8688,117.3488,242.8767,0,U,27848,999,19547,.65012077E-4,.105E-5,0
CUBESAT XI-V,2005-043F,2026-07-15T22:32:39.794208,14.72703396,.0015281,98.3016,353.1708,113.0525,247.2294,0,U,28895,999,10598,.10996E-3,.649E-5,0
CUTE-1.7+APD II (CO-65),2008-021C,2026-07-16T05:09:52.910208,15.09706206,.00069404,97.8296,179.2460,295.4791,64.5719,0,U,32785,999,98957,.15219542E-3,.2386E-4,0
CANX-2,2008-021H,2026-07-16T04:42:19.859616,15.05809244,.00086241,97.8658,177.5446,314.2838,45.7680,0,U,32790,999,98917,.96921345E-4,.134E-4,0
SEEDS II (CO-66),2008-021J,2026-07-15T23:33:57.844800,15.33682976,.00031554,97.7522,196.2767,154.4118,205.7280,0,U,32791,999,99170,.30950416E-3,.9999E-4,0
SWISSCUBE,2009-051B,2026-07-16T04:15:03.260448,14.62531689,.00078879,98.4006,105.5678,116.4429,243.7582,0,U,35932,999,89339,.97132642E-4,.443E-5,0
BEESAT-1,2009-051C,2026-07-15T07:29:04.477632,14.61761931,.0006132,98.3935,104.2639,129.5089,230.6654,0,U,35933,999,89329,.85522677E-4,.377E-5,0
ITUPSAT1,2009-051E,2026-07-15T04:34:09.441120,14.60478742,.00080864,98.4018,103.3025,143.1681,217.0076,0,U,35935,999,89282,.82053832E-4,.349E-5,0
TISAT 1,2010-035E,2026-07-15T18:51:51.199200,15.32747095,.00045546,98.0716,145.8980,118.9066,241.2631,0,U,36799,999,87208,.4025264E-3,.12652E-3,0
STRAND-1,2013-009E,2026-07-16T07:07:40.404288,14.37179203,.00094619,98.3935,16.8169,138.0921,222.0991,0,U,39090,999,70124,.5190816E-4,.112E-5,0
BRITE-AUSTRIA,2013-009F,2026-07-16T01:03:13.047264,14.36552721,.00108094,98.4009,15.7674,148.2512,211.9329,0,U,39091,999,70119,.38471619E-4,.7E-6,0
NEE-01 PEGASO,2013-018B,2026-07-15T08:00:06.314688,14.93789204,.00136937,98.1256,341.4213,73.9409,286.3317,0,U,39151,999,71490,.11642538E-3,.1174E-4,0
POPACS 2,2013-055E,2026-07-15T18:06:23.348160,14.92031396,.04149304,80.9916,111.4814,102.0893,262.7124,0,U,39269,999,66747,.2370344E-3,.1454E-3,-.920463E-6
POPACS 3,2013-055F,2026-07-15T10:09:59.798592,14.56665007,.05487499,80.9990,198.5566,343.9708,14.4695,0,U,39270,999,64266,.19704028E-3,.8298E-4,0
ZACUBE-1 (TSHEPISOSAT),2013-066B,2026-07-16T06:25:27.747264,15.01331206,.00440718,97.8007,159.7476,151.7764,208.5862,0,U,39417,999,68509,.91041302E-4,.1132E-4,0
WNISAT-1,2013-066H,2026-07-15T23:09:39.278880,14.58120940,.01639189,97.7236,344.0838,140.9009,220.4174,0,U,39423,999,67092,.11336878E-3,.58E-5,0
TRITON-1,2013-066M,2026-07-16T06:22:44.566176,14.81800158,.00906442,97.8228,106.4089,138.6226,222.1900,0,U,39427,999,67839,.18222205E-3,.1488E-4,0
GOMX-1,2013-066Q,2026-07-16T06:15:19.428192,14.69543802,.01281715,97.6464,35.8884,344.7805,14.9561,0,U,39430,999,67418,.99114136E-4,.614E-5,0
CUBEBUG-2 (LO-74),2013-066AA,2026-07-16T06:24:13.455360,14.93971016,.00555899,97.8916,146.3746,291.7136,67.8171,0,U,39440,999,68133,.18967558E-3,.2019E-4,0
NEE-02 KRYSAOR,2013-066AB,2026-07-16T06:50:04.729344,14.86741472,.00653064,97.8897,136.2952,335.6922,24.1217,0,U,39441,999,68052,.12264937E-3,.1074E-4,0
FUNCUBE-1 (AO-73),2013-066AE,2026-07-15T21:20:20.419872,15.09822727,.00379895,97.8290,168.9436,105.4335,255.1095,0,U,39444,999,68399,.22786592E-3,.3677E-4,0
UWE-3,2013-066AG,2026-07-15T19:42:56.271168,14.97201399,.00475492,97.8715,153.0945,222.4036,137.3508,0,U,39446,999,68186,.1702564E-3,.1951E-4,0
BRITE-CA1 (TORONTO),2014-033L,2026-07-15T20:18:13.453056,14.72723276,.0078484,97.9773,325.2513,184.1727,175.8836,0,U,40020,999,64643,.84679E-4,.513E-5,0
DUCHIFAT-1,2014-033M,2026-07-16T03:00:49.893408,15.71200075,.00027704,98.0416,260.5020,239.6355,120.4633,0,U,40021,999,66028,.68520431E-3,.87055E-3,0
NANOSATC-BR1,2014-033Q,2026-07-16T01:50:01.517280,15.32346233,.0005282,98.0707,232.0425,94.1088,266.0755,0,U,40024,999,65840,.30165766E-3,.9337E-4,0
QB50P1,2014-033R,2026-07-16T06:38:04.695936,15.18674869,.00104096,98.0963,210.4713,121.5140,238.7110,0,U,40025,999,65744,.19368784E-3,.3942E-4,0
QB50P2,2014-033Y,2026-07-16T05:17:40.265088,15.15513638,.00092879,98.0760,195.9175,80.8668,279.3613,0,U,40032,999,65706,.20258949E-3,.3766E-4,0
PERSEUS-M2,2014-033AD,2026-07-16T07:13:35.986080,14.95594457,.00108735,97.9984,148.4387,195.2391,164.8504,0,U,40037,999,65513,.9968425E-4,.1046E-4,0
PERSEUS-M1,2014-033AF,2026-07-16T06:31:17.754528,14.95718129,.00109781,97.9654,141.8842,192.5288,167.5661,0,U,40039,999,65498,.97255892E-4,.1023E-4,0
